SL-16 R/B               
1 22566U 93016B   26011.95527540 -.00000228  00000+0 -92868-4 0  9997
2 22566  71.0089 334.3412 0008533  38.7213 321.4520 14.15294558694146
COSMOS 2242             
1 22626U 93024A   26011.93184333  .00002707  00000+0  23679-3 0  9995
2 22626  82.5206 320.9853 0017589 131.6325 228.6407 14.96265018771909
SL-16 R/B               
1 22803U 93059B   26011.72942017  .00000163  00000+0  10463-3 0  9999
2 22803  70.9906 131.2470 0019265 293.8567  66.0537 14.17219426671467
ARIANE 40 R/B           
1 22830U 93061H   26011.92574903  .00000255  00000+0  10930-3 0  9990
2 22830  98.5030  81.9002 0011822  92.9565 267.2972 14.32824696685977
COSMOS 2278             
1 23087U 94023A   26011.94764355  .00000309  00000+0  18599-3 0  9997
2 23087  71.0551 293.8110 0006872 123.5650 236.6130 14.14362717636787
SL-16 R/B               
1 23088U 94023B   26011.94917884  .00000330  00000+0  19519-3 0  9992
2 23088  70.9984 190.0452 0003087 343.7913  16.3110 14.15004062638067
SL-16 R/B               
1 23343U 94074B   26011.97826843  .00000509  00000+0  75032-4 0  9990
2 23343  97.7175  45.0767 0007719  53.8586   9.8608 14.79331093678867
SL-16 R/B               
1 23405U 94077B   26011.67027489  .00000289  00000+0  17236-3 0  9994
2 23405  70.9833 112.4490 0004800 259.6753 100.3829 14.15552984608164
ARIANE 40+ R/B          
1 23561U 95021B   26011.84009058  .00000277  00000+0  10242-3 0  9995
2 23561  98.4608  84.0603 0005891 318.9905 156.9658 14.39722702611064
SL-16 R/B               
1 23705U 95058B   26011.95711354  .00000127  00000+0  89271-4 0  9999
2 23705  71.0230 299.3635 0013800 214.9681 145.0537 14.15489784559827
SL-16 R/B               
1 24298U 96051B   26011.94211550  .00000008  00000+0  31041-4 0  9993
2 24298  70.7597 295.3549 0019097 224.1814 135.7781 14.12400525513631
ORBVIEW 2 (SEASTAR)     
1 24883U 97037A   26011.95825464  .00000298  00000+0  12002-3 0  9990
2 24883  98.8477 174.7977 0001681 203.4458 156.6651 14.35443935500336
