CCSDS_OMM_VERS = 2.0
CREATION_DATE  = 
ORIGINATOR     = 

OBJECT_NAME    = SL-16 R/B
OBJECT_ID      = 1993-016B
CENTER_NAME    = EARTH
REF_FRAME      = TEME
TIME_SYSTEM    = UTC
MEAN_ELEMENT_THEORY = SGP/SGP4

EPOCH          = 2026-01-11T22:55:35.794560
MEAN_MOTION    = 14.15294558
ECCENTRICITY   = .00085338
INCLINATION    = 71.0089
RA_OF_ASC_NODE = 334.3412
ARG_OF_PERICENTER = 38.7213
MEAN_ANOMALY   = 321.4520

EPHEMERIS_TYPE = 0
CLASSIFICATION_TYPE = U
NORAD_CAT_ID   = 22566
ELEMENT_SET_NO = 999
REV_AT_EPOCH   = 69414
BSTAR          = -.92868492E-4
MEAN_MOTION_DOT = -.228E-5
MEAN_MOTION_DDOT = 0

CCSDS_OMM_VERS = 2.0
CREATION_DATE  = 
ORIGINATOR     = 

OBJECT_NAME    = COSMOS 2242
OBJECT_ID      = 1993-024A
CENTER_NAME    = EARTH
REF_FRAME      = TEME
TIME_SYSTEM    = UTC
MEAN_ELEMENT_THEORY = SGP/SGP4

EPOCH          = 2026-01-11T22:21:51.263712
MEAN_MOTION    = 14.96265018
ECCENTRICITY   = .00175898
INCLINATION    = 82.5206
RA_OF_ASC_NODE = 320.9853
ARG_OF_PERICENTER = 131.6325
MEAN_ANOMALY   = 228.6407

EPHEMERIS_TYPE = 0
CLASSIFICATION_TYPE = U
NORAD_CAT_ID   = 22626
ELEMENT_SET_NO = 999
REV_AT_EPOCH   = 77190
BSTAR          = .23678841E-3
MEAN_MOTION_DOT = .2707E-4
MEAN_MOTION_DDOT = 0

CCSDS_OMM_VERS = 2.0
CREATION_DATE  = 
ORIGINATOR     = 

OBJECT_NAME    = SL-16 R/B
OBJECT_ID      = 1993-059B
CENTER_NAME    = EARTH
REF_FRAME      = TEME
TIME_SYSTEM    = UTC
MEAN_ELEMENT_THEORY = SGP/SGP4

EPOCH          = 2026-01-11T17:30:21.902688
MEAN_MOTION    = 14.17219426
ECCENTRICITY   = .00192655
INCLINATION    = 70.9906
RA_OF_ASC_NODE = 131.2470
ARG_OF_PERICENTER = 293.8567
MEAN_ANOMALY   = 66.0537

EPHEMERIS_TYPE = 0
CLASSIFICATION_TYPE = U
NORAD_CAT_ID   = 22803
ELEMENT_SET_NO = 999
REV_AT_EPOCH   = 67146
BSTAR          = .10462689E-3
MEAN_MOTION_DOT = .163E-5
MEAN_MOTION_DDOT = 0

CCSDS_OMM_VERS = 2.0
CREATION_DATE  = 
ORIGINATOR     = 

OBJECT_NAME    = ARIANE 40 R/B
OBJECT_ID      = 1993-061H
CENTER_NAME    = EARTH
REF_FRAME      = TEME
TIME_SYSTEM    = UTC
MEAN_ELEMENT_THEORY = SGP/SGP4

EPOCH          = 2026-01-11T22:13:04.716192
MEAN_MOTION    = 14.32824696
ECCENTRICITY   = .00118229
INCLINATION    = 98.5030
RA_OF_ASC_NODE = 81.9002
ARG_OF_PERICENTER = 92.9565
MEAN_ANOMALY   = 267.2972

EPHEMERIS_TYPE = 0
CLASSIFICATION_TYPE = U
NORAD_CAT_ID   = 22830
ELEMENT_SET_NO = 999
REV_AT_EPOCH   = 68597
BSTAR          = .10930239E-3
MEAN_MOTION_DOT = .255E-5
MEAN_MOTION_DDOT = 0

CCSDS_OMM_VERS = 2.0
CREATION_DATE  = 
ORIGINATOR     = 

OBJECT_NAME    = COSMOS 2278
OBJECT_ID      = 1994-023A
CENTER_NAME    = EARTH
REF_FRAME      = TEME
TIME_SYSTEM    = UTC
MEAN_ELEMENT_THEORY = SGP/SGP4

EPOCH          = 2026-01-11T22:44:36.402720
MEAN_MOTION    = 14.14362717
ECCENTRICITY   = .00068725
INCLINATION    = 71.0551
RA_OF_ASC_NODE = 293.8110
ARG_OF_PERICENTER = 123.5650
MEAN_ANOMALY   = 236.6130

EPHEMERIS_TYPE = 0
CLASSIFICATION_TYPE = U
NORAD_CAT_ID   = 23087
ELEMENT_SET_NO = 999
REV_AT_EPOCH   = 63678
BSTAR          = .18598523E-3
MEAN_MOTION_DOT = .309E-5
MEAN_MOTION_DDOT = 0

CCSDS_OMM_VERS = 2.0
CREATION_DATE  = 
ORIGINATOR     = 

OBJECT_NAME    = SL-16 R/B
OBJECT_ID      = 1994-023B
CENTER_NAME    = EARTH
REF_FRAME      = TEME
TIME_SYSTEM    = UTC
MEAN_ELEMENT_THEORY = SGP/SGP4

EPOCH          = 2026-01-11T22:46:49.051776
MEAN_MOTION    = 14.15004062
ECCENTRICITY   = .00030878
INCLINATION    = 70.9984
RA_OF_ASC_NODE = 190.0452
ARG_OF_PERICENTER = 343.7913
MEAN_ANOMALY   = 16.3110

EPHEMERIS_TYPE = 0
CLASSIFICATION_TYPE = U
NORAD_CAT_ID   = 23088
ELEMENT_SET_NO = 999
REV_AT_EPOCH   = 63806
BSTAR          = .19519405E-3
MEAN_MOTION_DOT = .33E-5
MEAN_MOTION_DDOT = 0

CCSDS_OMM_VERS = 2.0
CREATION_DATE  = 
ORIGINATOR     = 

OBJECT_NAME    = SL-16 R/B
OBJECT_ID      = 1994-074B
CENTER_NAME    = EARTH
REF_FRAME      = TEME
TIME_SYSTEM    = UTC
MEAN_ELEMENT_THEORY = SGP/SGP4

EPOCH          = 2026-01-11T23:28:42.392352
MEAN_MOTION    = 14.79331093
ECCENTRICITY   = .00077192
INCLINATION    = 97.7175
RA_OF_ASC_NODE = 45.0767
ARG_OF_PERICENTER = 53.8586
MEAN_ANOMALY   = 9.8608

EPHEMERIS_TYPE = 0
CLASSIFICATION_TYPE = U
NORAD_CAT_ID   = 23343
ELEMENT_SET_NO = 999
REV_AT_EPOCH   = 67886
BSTAR          = .75032078E-4
MEAN_MOTION_DOT = .509E-5
MEAN_MOTION_DDOT = 0

CCSDS_OMM_VERS = 2.0
CREATION_DATE  = 
ORIGINATOR     = 

OBJECT_NAME    = SL-16 R/B
OBJECT_ID      = 1994-077B
CENTER_NAME    = EARTH
REF_FRAME      = TEME
TIME_SYSTEM    = UTC
MEAN_ELEMENT_THEORY = SGP/SGP4

EPOCH          = 2026-01-11T16:05:11.750496
MEAN_MOTION    = 14.15552984
ECCENTRICITY   = .00048009
INCLINATION    = 70.9833
RA_OF_ASC_NODE = 112.4490
ARG_OF_PERICENTER = 259.6753
MEAN_ANOMALY   = 100.3829

EPHEMERIS_TYPE = 0
CLASSIFICATION_TYPE = U
NORAD_CAT_ID   = 23405
ELEMENT_SET_NO = 999
REV_AT_EPOCH   = 60816
BSTAR          = .17236392E-3
MEAN_MOTION_DOT = .289E-5
MEAN_MOTION_DDOT = 0

CCSDS_OMM_VERS = 2.0
CREATION_DATE  = 
ORIGINATOR     = 

OBJECT_NAME    = ARIANE 40+ R/B
OBJECT_ID      = 1995-021B
CENTER_NAME    = EARTH
REF_FRAME      = TEME
TIME_SYSTEM    = UTC
MEAN_ELEMENT_THEORY = SGP/SGP4

EPOCH          = 2026-01-11T20:09:43.826112
MEAN_MOTION    = 14.39722702
ECCENTRICITY   = .0005891
INCLINATION    = 98.4608
RA_OF_ASC_NODE = 84.0603
ARG_OF_PERICENTER = 318.9905
MEAN_ANOMALY   = 156.9658

EPHEMERIS_TYPE = 0
CLASSIFICATION_TYPE = U
NORAD_CAT_ID   = 23561
ELEMENT_SET_NO = 999
REV_AT_EPOCH   = 61106
BSTAR          = .10242112E-3
MEAN_MOTION_DOT = .277E-5
MEAN_MOTION_DDOT = 0

CCSDS_OMM_VERS = 2.0
CREATION_DATE  = 
ORIGINATOR     = 

OBJECT_NAME    = SL-16 R/B
OBJECT_ID      = 1995-058B
CENTER_NAME    = EARTH
REF_FRAME      = TEME
TIME_SYSTEM    = UTC
MEAN_ELEMENT_THEORY = SGP/SGP4

EPOCH          = 2026-01-11T22:58:14.609856
MEAN_MOTION    = 14.15489784
ECCENTRICITY   = .00138007
INCLINATION    = 71.0230
RA_OF_ASC_NODE = 299.3635
ARG_OF_PERICENTER = 214.9681
MEAN_ANOMALY   = 145.0537

EPHEMERIS_TYPE = 0
CLASSIFICATION_TYPE = U
NORAD_CAT_ID   = 23705
ELEMENT_SET_NO = 999
REV_AT_EPOCH   = 55982
BSTAR          = .89271061E-4
MEAN_MOTION_DOT = .127E-5
MEAN_MOTION_DDOT = 0

CCSDS_OMM_VERS = 2.0
CREATION_DATE  = 
ORIGINATOR     = 

OBJECT_NAME    = SL-16 R/B
OBJECT_ID      = 1996-051B
CENTER_NAME    = EARTH
REF_FRAME      = TEME
TIME_SYSTEM    = UTC
MEAN_ELEMENT_THEORY = SGP/SGP4

EPOCH          = 2026-01-11T22:36:38.779200
MEAN_MOTION    = 14.12400525
ECCENTRICITY   = .00190978
INCLINATION    = 70.7597
RA_OF_ASC_NODE = 295.3549
ARG_OF_PERICENTER = 224.1814
MEAN_ANOMALY   = 135.7781

EPHEMERIS_TYPE = 0
CLASSIFICATION_TYPE = U
NORAD_CAT_ID   = 24298
ELEMENT_SET_NO = 999
REV_AT_EPOCH   = 51363
BSTAR          = .31040913E-4
MEAN_MOTION_DOT = .8E-7
MEAN_MOTION_DDOT = 0

CCSDS_OMM_VERS = 2.0
CREATION_DATE  = 
ORIGINATOR     = 

OBJECT_NAME    = ORBVIEW 2 (SEASTAR)
OBJECT_ID      = 1997-037A
CENTER_NAME    = EARTH
REF_FRAME      = TEME
TIME_SYSTEM    = UTC
MEAN_ELEMENT_THEORY = SGP/SGP4

EPOCH          = 2026-01-11T22:59:53.200896
MEAN_MOTION    = 14.35443935
ECCENTRICITY   = .00016816
INCLINATION    = 98.8477
RA_OF_ASC_NODE = 174.7977
ARG_OF_PERICENTER = 203.4458
MEAN_ANOMALY   = 156.6651

EPHEMERIS_TYPE = 0
CLASSIFICATION_TYPE = U
NORAD_CAT_ID   = 24883
ELEMENT_SET_NO = 999
REV_AT_EPOCH   = 50033
BSTAR          = .12001777E-3
MEAN_MOTION_DOT = .298E-5
MEAN_MOTION_DDOT = 0

